INTELSAT 902 (IS-902)   
1 26900U 01039A   26199.46985542 -.00000293  00000+0  00000+0 0  9993
2 26900   6.1927  71.3972 0004174  45.5994 298.3258  1.00271441 91002
INTELSAT 904 (IS-904)   
1 27380U 02007A   26199.40229124 -.00000236  00000+0  00000+0 0  9990
2 27380   6.9961  68.8066 0005411  27.4080 313.3302  1.00270363 52070
DIRECTV 5 (TEMPO 1)     
1 27426U 02023A   26199.42058557 -.00000067  00000+0  00000+0 0  9993
2 27426   4.9557  74.9200 0003232  49.6609 212.9375  1.00271908 88439
INTELSAT 905 (IS-905)   
1 27438U 02027A   26199.39003064  .00000083  00000+0  00000+0 0  9996
2 27438   6.8299  69.4206 0003549  48.4993 181.4730  1.00272574 51676
GALAXY 3C (G-3C)        
1 27445U 02030A   26198.81942775 -.00000163  00000+0  00000+0 0  9995
2 27445   3.8113  77.5805 0001653  31.4456  26.7582  1.00270872 46805
INTELSAT 906 (IS-906)   
1 27513U 02041A   26199.20729490  .00000002  00000+0  00000+0 0  9995
2 27513   5.8782  72.5358 0003700  28.8661 333.4084  1.00273761 87345
GALAXY 13 (HORIZONS-1)  
1 27954U 03044A   26199.60530863  .00000125  00000+0  00000+0 0  9992
2 27954   1.4975  83.4566 0002105  36.2663 244.5819  1.00272816 46887
INTELSAT 10-02          
1 28358U 04022A   26199.55074536 -.00000019  00000+0  00000+0 0  9995
2 28358   0.0532 253.8961 0000155 359.8199 239.8937  1.00270469 80870
DIRECTV 8               
1 28659U 05019A   26199.58886648 -.00000006  00000+0  00000+0 0  9990
2 28659   0.0181  61.4624 0003061  61.3631 266.4926  1.00272236 77388
GALAXY 28 (G-28)        
1 28702U 05022A   26199.47436211 -.00000209  00000+0  00000+0 0  9993
2 28702   3.3762  78.5448 0002477  33.1919 328.2124  1.00271261 52294
GALAXY 16 (G-16)        
1 29236U 06023A   26199.53141860 -.00000134  00000+0  00000+0 0  9995
2 29236   0.0243 146.5204 0002624 330.3497 271.7594  1.00271553 73287
DIRECTV 9S              
1 29494U 06043A   26199.53098527 -.00000122  00000+0  00000+0 0  9991
2 29494   2.4999  80.5253 0005043  32.7141 273.0430  1.00271528 51692
GALAXY 17 (G-17)        
1 31307U 07016B   26199.53419194 -.00000215  00000+0  00000+0 0  9998
2 31307   3.0491  79.5055 0003690  36.7359 287.3764  1.00271231 70118
INTELSAT 11 (IS-11)     
1 32253U 07044B   26199.33498417 -.00000221  00000+0  00000+0 0  9990
2 32253   3.6447  78.2916 0004340  99.6437 227.6151  0.99052932 68752
HORIZONS-2              
1 32388U 07063B   26199.62336171 -.00000262  00000+0  00000+0 0  9995
2 32388   2.6814  80.2414 0003588  18.0448 348.7384  1.00272898 68137
DIRECTV 11              
1 32729U 08013A   26199.53141860 -.00000133  00000+0  00000+0 0  9996
2 32729   0.0048 263.6476 0000077 202.2752 282.5282  1.00271761 45907
GALAXY 18 (G-18)        
1 32951U 08024A   26199.58864397  .00000018  00000+0  00000+0 0  9998
2 32951   0.0193  80.6595 0002923  35.7671 268.8509  1.00271527 46163
GALAXY 19 (G-19)        
1 33376U 08045A   26199.57952319 -.00000146  00000+0  00000+0 0  9997
2 33376   0.0440 245.8172 0002493 241.6064 280.5810  1.00270987 65214
FM-5                    
1 35493U 09034A   26198.96360093 -.00000209  00000+0  00000+0 0  9992
2 35493   0.0358 248.5990 0000724 112.8401 195.0577  1.00271932 46952
INTELSAT 14 (IS-14)     
1 36097U 09064A   26199.47080876  .00000000  00000+0  00000+0 0  9999
2 36097   0.0184  46.1925 0002496  71.8948 302.6858  1.00269839 60911
INTELSAT 15 (IS-15)     
1 36106U 09067A   26199.67215862 -.00000192  00000+0  00000+0 0  9993
2 36106   0.0169  48.8346 0002319  67.0382 147.7142  1.00272810 41549
DIRECTV 12              
1 36131U 09075A   26199.46850486 -.00000111  00000+0  00000+0 0  9995
2 36131   0.0377 206.0822 0000287  16.0154 140.1053  1.00272112 46861
INTELSAT 16 (IS-16)     
1 36397U 10006A   26199.62891936 -.00000252  00000+0  00000+0 0  9994
2 36397   0.0189  63.4364 0002385  72.4664 310.7238  1.00271780 59971
XM-5                    
1 37185U 10053A   26199.31435740 -.00000031  00000+0  00000+0 0  9990
2 37185   0.0601 263.6204 0001405 320.7264  69.7395  1.00272616 57792
INTELSAT 17 (IS-17)     
1 37238U 10065B   26199.49282219 -.00000009  00000+0  00000+0 0  9997
2 37238   0.0063  86.3490 0002565  42.0305  51.3256  1.00272480 53561
INTELSAT 28 (IS-28)     
1 37392U 11016A   26199.40220457 -.00000233  00000+0  00000+0 0  9991
2 37392   1.8851  82.2447 0003813  41.2707 285.7743  1.00271799 53596
INTELSAT 18 (IS-18)     
1 37834U 11056A   26199.56017123  .00000046  00000+0  00000+0 0  9998
2 37834   0.0410 235.4974 0001883 252.5767 189.9436  1.00273001 54126
INTELSAT 22 (IS-22)     
1 38098U 12011A   26199.56531082 -.00000066  00000+0  00000+0 0  9991
2 38098   0.0197  59.1333 0001838  70.0495  82.7941  1.00272007  7508
INTELSAT 19 (IS-19)     
1 38356U 12030A   26199.57683604 -.00000064  00000+0  00000+0 0  9996
2 38356   0.0174  52.9651 0002926  64.0061 193.0510  1.00271971 50768
INTELSAT 20 (IS-20)     
1 38740U 12043A   26199.56461749 -.00000031  00000+0  00000+0 0  9994
2 38740   0.0140  71.0540 0001313 111.6027  25.4729  1.00271127 51064
INTELSAT 21 (IS-21)     
1 38749U 12045A   26199.53956531 -.00000292  00000+0  00000+0 0  9999
2 38749   0.0465 243.9441 0001687 243.5912 305.0520  1.00272058 50839
